start=new Date('2023-06-27T00:00:00.000Z').valueOf();
sats=[{"REF_FRAME":"TEME","EPOCH":"2023-06-26T03:04:20.791488","BSTAR":"0.00095987000000","CLASSIFICATION_TYPE":"U","FILE":"3943030","TLE_LINE2":"2 47581  53.0532 114.9529 0001341  80.2251 279.8889 15.06365897132831","RA_OF_ASC_NODE":"114.9529","PERIOD":"95.594","MEAN_MOTION":"15.06365897","ARG_OF_PERICENTER":"80.2251","ELEMENT_SET_NO":"999","OBJECT_NAME":"STARLINK-1984","NORAD_CAT_ID":"47581","MEAN_ANOMALY":"279.8889","DECAY_DATE":null,"TLE_LINE1":"1 47581U 21009AK  23177.12801842  .00014031  00000-0  95987-3 0  9993","REV_AT_EPOCH":"13283","OBJECT_TYPE":"PAYLOAD","CENTER_NAME":"EARTH","LAUNCH_DATE":"2021-02-04","SITE":"AFETR","PERIAPSIS":"546.389","MEAN_MOTION_DOT":"0.00014031","SEMIMAJOR_AXIS":"6925.453","TIME_SYSTEM":"UTC","APOAPSIS":"548.247","ECCENTRICITY":"0.00013410","GP_ID":"234559168","MEAN_MOTION_DDOT":"0.0000000000000","MEAN_ELEMENT_THEORY":"SGP4","OBJECT_ID":"2021-009AK","INCLINATION":"53.0532","EPHEMERIS_TYPE":"0","RCS_SIZE":"LARGE","COUNTRY_CODE":"US"},{"SITE":"AFETR","PERIAPSIS":"546.122","MEAN_MOTION_DOT":"-0.00006092","TIME_SYSTEM":"UTC","SEMIMAJOR_AXIS":"6925.397","ECCENTRICITY":"0.00016460","APOAPSIS":"548.402","REV_AT_EPOCH":"13254","TLE_LINE1":"1 47582U 21009AL  23177.11510989 -.00006092  00000-0 -39061-3 0  9993","OBJECT_TYPE":"PAYLOAD","CENTER_NAME":"EARTH","LAUNCH_DATE":"2021-02-04","EPHEMERIS_TYPE":"0","RCS_SIZE":"LARGE","COUNTRY_CODE":"US","GP_ID":"234558214","MEAN_MOTION_DDOT":"0.0000000000000","MEAN_ELEMENT_THEORY":"SGP4","OBJECT_ID":"2021-009AL","INCLINATION":"53.0531","EPOCH":"2023-06-26T02:45:45.494496","BSTAR":"-0.00039061000000","CLASSIFICATION_TYPE":"U","TLE_LINE2":"2 47582  53.0531 135.0133 0001646 122.8771 237.2376 15.06384068132542","RA_OF_ASC_NODE":"135.0133","FILE":"3943014","REF_FRAME":"TEME","ELEMENT_SET_NO":"999","ARG_OF_PERICENTER":"122.8771","OBJECT_NAME":"STARLINK-1986","NORAD_CAT_ID":"47582","MEAN_ANOMALY":"237.2376","DECAY_DATE":null,"PERIOD":"95.593","MEAN_MOTION":"15.06384068"},{"PERIOD":"95.593","MEAN_MOTION":"15.06388911","MEAN_ANOMALY":"274.8939","NORAD_CAT_ID":"47583","DECAY_DATE":null,"ELEMENT_SET_NO":"999","ARG_OF_PERICENTER":"85.2236","OBJECT_NAME":"STARLINK-1987","REF_FRAME":"TEME","CLASSIFICATION_TYPE":"U","TLE_LINE2":"2 47583  53.0525 134.8119 0001632  85.2236 274.8939 15.06388911132565","FILE":"3943014","RA_OF_ASC_NODE":"134.8119","EPOCH":"2023-06-26T03:49:27.827040","BSTAR":"0.00003855200000","OBJECT_ID":"2021-009AM","INCLINATION":"53.0525","GP_ID":"234558555","MEAN_ELEMENT_THEORY":"SGP4","MEAN_MOTION_DDOT":"0.0000000000000","RCS_SIZE":"LARGE","COUNTRY_CODE":"US","EPHEMERIS_TYPE":"0","REV_AT_EPOCH":"13256","TLE_LINE1":"1 47583U 21009AM  23177.15934985  .00000293  00000-0  38552-4 0  9994","OBJECT_TYPE":"PAYLOAD","CENTER_NAME":"EARTH","LAUNCH_DATE":"2021-02-04","TIME_SYSTEM":"UTC","SEMIMAJOR_AXIS":"6925.383","APOAPSIS":"548.378","ECCENTRICITY":"0.00016320","SITE":"AFETR","PERIAPSIS":"546.117","MEAN_MOTION_DOT":"0.00000293"},{"MEAN_MOTION_DDOT":"0.0000000000000","MEAN_ELEMENT_THEORY":"SGP4","GP_ID":"234573178","INCLINATION":"53.0527","OBJECT_ID":"2021-009AP","EPHEMERIS_TYPE":"0","RCS_SIZE":"LARGE","COUNTRY_CODE":"US","LAUNCH_DATE":"2021-02-04","CENTER_NAME":"EARTH","REV_AT_EPOCH":"13263","TLE_LINE1":"1 47585U 21009AP  23177.64958339  .00006200  00000-0  43499-3 0  9998","OBJECT_TYPE":"PAYLOAD","PERIAPSIS":"546.440","MEAN_MOTION_DOT":"0.00006200","SITE":"AFETR","APOAPSIS":"548.120","ECCENTRICITY":"0.00012130","TIME_SYSTEM":"UTC","SEMIMAJOR_AXIS":"6925.415","PERIOD":"95.594","MEAN_MOTION":"15.06378187","OBJECT_NAME":"STARLINK-1989","ELEMENT_SET_NO":"999","ARG_OF_PERICENTER":"106.8025","DECAY_DATE":null,"NORAD_CAT_ID":"47585","MEAN_ANOMALY":"253.3097","REF_FRAME":"TEME","BSTAR":"0.00043499000000","EPOCH":"2023-06-26T15:35:24.004896","RA_OF_ASC_NODE":"132.6132","TLE_LINE2":"2 47585  53.0527 132.6132 0001213 106.8025 253.3097 15.06378187132630","FILE":"3943610","CLASSIFICATION_TYPE":"U"},{"COUNTRY_CODE":"US","RCS_SIZE":"LARGE","EPHEMERIS_TYPE":"0","OBJECT_ID":"2021-009AQ","INCLINATION":"53.0531","GP_ID":"234573174","MEAN_MOTION_DDOT":"0.0000000000000","MEAN_ELEMENT_THEORY":"SGP4","TIME_SYSTEM":"UTC","SEMIMAJOR_AXIS":"6925.357","APOAPSIS":"548.050","ECCENTRICITY":"0.00011960","SITE":"AFETR","MEAN_MOTION_DOT":"0.00000389","PERIAPSIS":"546.394","OBJECT_TYPE":"PAYLOAD","TLE_LINE1":"1 47586U 21009AQ  23177.63298331  .00000389  00000-0  45036-4 0  9999","REV_AT_EPOCH":"13235","CENTER_NAME":"EARTH","LAUNCH_DATE":"2021-02-04","NORAD_CAT_ID":"47586","MEAN_ANOMALY":"265.5307","DECAY_DATE":null,"ARG_OF_PERICENTER":"94.5818","ELEMENT_SET_NO":"999","OBJECT_NAME":"STARLINK-1990","MEAN_MOTION":"15.06397186","PERIOD":"95.592","CLASSIFICATION_TYPE":"U","FILE":"3943610","TLE_LINE2":"2 47586  53.0531 152.6841 0001196  94.5818 265.5307 15.06397186132356","RA_OF_ASC_NODE":"152.6841","EPOCH":"2023-06-26T15:11:29.757984","BSTAR":"0.00004503600000","REF_FRAME":"TEME"},{"COUNTRY_CODE":"US","RCS_SIZE":"LARGE","EPHEMERIS_TYPE":"0","OBJECT_ID":"2021-009AR","INCLINATION":"53.0527","GP_ID":"234558563","MEAN_MOTION_DDOT":"0.0000000000000","MEAN_ELEMENT_THEORY":"SGP4","TIME_SYSTEM":"UTC","SEMIMAJOR_AXIS":"6925.385","ECCENTRICITY":"0.00011930","APOAPSIS":"548.076","SITE":"AFETR","MEAN_MOTION_DOT":"-0.00002401","PERIAPSIS":"546.423","OBJECT_TYPE":"PAYLOAD","REV_AT_EPOCH":"13268","TLE_LINE1":"1 47587U 21009AR  23177.09760234 -.00002401  00000-0 -14242-3 0  9999","LAUNCH_DATE":"2021-02-04","CENTER_NAME":"EARTH","NORAD_CAT_ID":"47587","MEAN_ANOMALY":"242.8204","DECAY_DATE":null,"ARG_OF_PERICENTER":"117.2907","ELEMENT_SET_NO":"999","OBJECT_NAME":"STARLINK-1991","MEAN_MOTION":"15.06388255","PERIOD":"95.593","CLASSIFICATION_TYPE":"U","TLE_LINE2":"2 47587  53.0527 125.0924 0001193 117.2907 242.8204 15.06388255132684","RA_OF_ASC_NODE":"125.0924","FILE":"3943014","EPOCH":"2023-06-26T02:20:32.842176","BSTAR":"-0.00014242000000","REF_FRAME":"TEME"},{"COUNTRY_CODE":"US","RCS_SIZE":"LARGE","EPHEMERIS_TYPE":"0","OBJECT_ID":"2021-009AS","INCLINATION":"53.0525","GP_ID":"234565234","MEAN_MOTION_DDOT":"0.0000000000000","MEAN_ELEMENT_THEORY":"SGP4","SEMIMAJOR_AXIS":"6925.394","TIME_SYSTEM":"UTC","APOAPSIS":"548.246","ECCENTRICITY":"0.00014240","SITE":"AFETR","MEAN_MOTION_DOT":"-0.00002331","PERIAPSIS":"546.273","OBJECT_TYPE":"PAYLOAD","REV_AT_EPOCH":"13258","TLE_LINE1":"1 47588U 21009AS  23177.28834910 -.00002331  00000-0 -13770-3 0  9991","LAUNCH_DATE":"2021-02-04","CENTER_NAME":"EARTH","NORAD_CAT_ID":"47588","MEAN_ANOMALY":"278.1696","DECAY_DATE":null,"ELEMENT_SET_NO":"999","ARG_OF_PERICENTER":"81.9455","OBJECT_NAME":"STARLINK-1993","MEAN_MOTION":"15.06385066","PERIOD":"95.593","CLASSIFICATION_TYPE":"U","TLE_LINE2":"2 47588  53.0525 134.2346 0001424  81.9455 278.1696 15.06385066132588","RA_OF_ASC_NODE":"134.2346","FILE":"3943311","EPOCH":"2023-06-26T06:55:13.362240","BSTAR":"-0.00013770000000","REF_FRAME":"TEME"},{"OBJECT_TYPE":"PAYLOAD","TLE_LINE1":"1 47589U 21009AT  23177.57217321  .00010118  00000-0  69750-3 0  9994","REV_AT_EPOCH":"13262","LAUNCH_DATE":"2021-02-04","CENTER_NAME":"EARTH","SITE":"AFETR","MEAN_MOTION_DOT":"0.00010118","PERIAPSIS":"546.378","SEMIMAJOR_AXIS":"6925.401","TIME_SYSTEM":"UTC","APOAPSIS":"548.154","ECCENTRICITY":"0.00012820","GP_ID":"234572684","MEAN_MOTION_DDOT":"0.0000000000000","MEAN_ELEMENT_THEORY":"SGP4","OBJECT_ID":"2021-009AT","INCLINATION":"53.0528","EPHEMERIS_TYPE":"0","COUNTRY_CODE":"US","RCS_SIZE":"LARGE","REF_FRAME":"TEME","EPOCH":"2023-06-26T13:43:55.765344","BSTAR":"0.00069750000000","CLASSIFICATION_TYPE":"U","FILE":"3943610","TLE_LINE2":"2 47589  53.0528 132.9593 0001282 102.4525 257.6608 15.06382997132620","RA_OF_ASC_NODE":"132.9593","MEAN_MOTION":"15.06382997","PERIOD":"95.593","ELEMENT_SET_NO":"999","ARG_OF_PERICENTER":"102.4525","OBJECT_NAME":"STARLINK-1994","NORAD_CAT_ID":"47589","MEAN_ANOMALY":"257.6608","DECAY_DATE":null},{"CENTER_NAME":"EARTH","LAUNCH_DATE":"2021-02-04","TLE_LINE1":"1 47590U 21009AU  23177.62929560  .00000961  00000-0  83372-4 0  9999","REV_AT_EPOCH":"13234","OBJECT_TYPE":"PAYLOAD","APOAPSIS":"548.124","ECCENTRICITY":"0.00013170","SEMIMAJOR_AXIS":"6925.347","TIME_SYSTEM":"UTC","PERIAPSIS":"546.300","MEAN_MOTION_DOT":"0.00000961","SITE":"AFETR","INCLINATION":"53.0531","OBJECT_ID":"2021-009AU","MEAN_MOTION_DDOT":"0.0000000000000","MEAN_ELEMENT_THEORY":"SGP4","GP_ID":"234573189","RCS_SIZE":"LARGE","COUNTRY_CODE":"US","EPHEMERIS_TYPE":"0","REF_FRAME":"TEME","RA_OF_ASC_NODE":"152.7009","TLE_LINE2":"2 47590  53.0531 152.7009 0001317  95.1154 264.9985 15.06400417132349","FILE":"3943611","CLASSIFICATION_TYPE":"U","BSTAR":"0.00008337200000","EPOCH":"2023-06-26T15:06:11.139840","PERIOD":"95.592","MEAN_MOTION":"15.06400417","DECAY_DATE":null,"MEAN_ANOMALY":"264.9985","NORAD_CAT_ID":"47590","OBJECT_NAME":"STARLINK-1995","ARG_OF_PERICENTER":"95.1154","ELEMENT_SET_NO":"999"},{"PERIOD":"95.593","MEAN_MOTION":"15.06389914","ARG_OF_PERICENTER":"97.1170","ELEMENT_SET_NO":"999","OBJECT_NAME":"STARLINK-1996","NORAD_CAT_ID":"47591","MEAN_ANOMALY":"262.9955","DECAY_DATE":null,"REF_FRAME":"TEME","EPOCH":"2023-06-26T02:29:50.559360","BSTAR":"0.00008830900000","CLASSIFICATION_TYPE":"U","TLE_LINE2":"2 47591  53.0533 135.0616 0001201  97.1170 262.9955 15.06389914132547","FILE":"3943031","RA_OF_ASC_NODE":"135.0616","GP_ID":"234559183","MEAN_ELEMENT_THEORY":"SGP4","MEAN_MOTION_DDOT":"0.0000000000000","OBJECT_ID":"2021-009AV","INCLINATION":"53.0533","EPHEMERIS_TYPE":"0","RCS_SIZE":"LARGE","COUNTRY_CODE":"US","TLE_LINE1":"1 47591U 21009AV  23177.10405740  .00001034  00000-0  88309-4 0  9999","REV_AT_EPOCH":"13254","OBJECT_TYPE":"PAYLOAD","LAUNCH_DATE":"2021-02-04","CENTER_NAME":"EARTH","SITE":"AFETR","PERIAPSIS":"546.413","MEAN_MOTION_DOT":"0.00001034","TIME_SYSTEM":"UTC","SEMIMAJOR_AXIS":"6925.379","ECCENTRICITY":"0.00012010","APOAPSIS":"548.076"}];
